{"type": "FeatureCollection", "features": [ {"type": "Feature", "properties": {"norad_id": 37460, "name": "FENGYUN 1C DEB", "group": "fengyun-1c-debris", "lat": 68.9311392672211, "lon": -0.4178295559900559, "alt_km": 764.4439039305335, "timestamp": "2025-12-07T03:52:32.786752+00:00", "meta": {"OBJECT_NAME": "FENGYUN 1C DEB", "OBJECT_ID": "1999-025EJE", "EPOCH": "2025-12-06T10:47:04.513920", "MEAN_MOTION": 14.47797141, "ECCENTRICITY": 0.00567173, "INCLINATION": 98.3787, "RA_OF_ASC_NODE": 156.3835, "ARG_OF_PERICENTER": 309.3798, "MEAN_ANOMALY": 50.2379, "EPHEMERIS_TYPE": 0, "CLASSIFICATION_TYPE": "U", "NORAD_CAT_ID": 37460, "ELEMENT_SET_NO": 999, "REV_AT_EPOCH": 82398, "BSTAR": 0.0038643816, "MEAN_MOTION_DOT": 0.00014564, "MEAN_MOTION_DDOT": 0}, "tle": {"line1": "1 37460U 99025EJE 25340.44935780  .00014564  00000+0  38644-2 0  9995", "line2": "2 37460  98.3787 156.3835 0056717 309.3798  50.2379 14.47797141823981"}}, "geometry": {"type": "Point", "coordinates": [-0.4178295559900559, 68.9311392672211]}}, {"type": "Feature", "properties": {"norad_id": 37461, "name": "FENGYUN 1C DEB", "group": "fengyun-1c-debris", "lat": -11.789152185406975, "lon": -127.89529289419534, "alt_km": 838.7870555547643, "timestamp": "2025-12-07T03:52:32.786762+00:00", "meta": {"OBJECT_NAME": "FENGYUN 1C DEB", "OBJECT_ID": "1999-025EJF", "EPOCH": "2025-11-27T22:25:56.122176", "MEAN_MOTION": 12.7907076, "ECCENTRICITY": 0.0667413, "INCLINATION": 99.8664, "RA_OF_ASC_NODE": 221.8984, "ARG_OF_PERICENTER": 359.7811, "MEAN_ANOMALY": 0.291, "EPHEMERIS_TYPE": 0, "CLASSIFICATION_TYPE": "U", "NORAD_CAT_ID": 37461, "ELEMENT_SET_NO": 999, "REV_AT_EPOCH": 51845, "BSTAR": 0.0053613, "MEAN_MOTION_DOT": 3.048e-05, "MEAN_MOTION_DDOT": 0}, "tle": {"line1": "1 37461U 99025EJF 25331.93467734  .00003048  00000+0  53613-2 0  9997", "line2": "2 37461  99.8664 221.8984 0667413 359.7811   0.2910 12.79070760518454"}}, "geometry": {"type": "Point", "coordinates": [-127.89529289419534, -11.789152185406975]}}, {"type": "Feature", "properties": {"norad_id": 37464, "name": "FENGYUN 1C DEB", "group": "fengyun-1c-debris", "lat": 2.9544147997136467, "lon": 84.41379393906816, "alt_km": 848.8203450160454, "timestamp": "2025-12-07T03:52:32.786772+00:00", "meta": {"OBJECT_NAME": "FENGYUN 1C DEB", "OBJECT_ID": "1999-025EJJ", "EPOCH": "2025-12-02T12:30:15.753024", "MEAN_MOTION": 13.46817594, "ECCENTRICITY": 0.04515106, "INCLINATION": 102.7064, "RA_OF_ASC_NODE": 257.8588, "ARG_OF_PERICENTER": 139.9323, "MEAN_ANOMALY": 223.6036, "EPHEMERIS_TYPE": 0, "CLASSIFICATION_TYPE": "U", "NORAD_CAT_ID": 37464, "ELEMENT_SET_NO": 999, "REV_AT_EPOCH": 60784, "BSTAR": 0.002719918, "MEAN_MOTION_DOT": 3.007e-05, "MEAN_MOTION_DDOT": 0}, "tle": {"line1": "1 37464U 99025EJJ 25336.52101566  .00003007  00000+0  27199-2 0  9993", "line2": "2 37464 102.7064 257.8588 0451510 139.9323 223.6036 13.46817594607840"}}, "geometry": {"type": "Point", "coordinates": [84.41379393906816, 2.9544147997136467]}}, {"type": "Feature", "properties": {"norad_id": 37470, "name": "FENGYUN 1C DEB", "group": "fengyun-1c-debris", "lat": -36.11315572164942, "lon": 130.32106135105658, "alt_km": 577.2281898712654, "timestamp": "2025-12-07T03:52:32.786783+00:00", "meta": {"OBJECT_NAME": "FENGYUN 1C DEB", "OBJECT_ID": "1999-025EJQ", "EPOCH": "2025-12-02T08:43:26.114016", "MEAN_MOTION": 14.99042865, "ECCENTRICITY": 0.00053598, "INCLINATION": 98.6674, "RA_OF_ASC_NODE": 118.5972, "ARG_OF_PERICENTER": 185.6749, "MEAN_ANOMALY": 174.4411, "EPHEMERIS_TYPE": 0, "CLASSIFICATION_TYPE": "U", "NORAD_CAT_ID": 37470, "ELEMENT_SET_NO": 999, "REV_AT_EPOCH": 65306, "BSTAR": 0.0063565181, "MEAN_MOTION_DOT": 0.00077884, "MEAN_MOTION_DDOT": 0}, "tle": {"line1": "1 37470U 99025EJQ 25336.36349669  .00077884  00000+0  63565-2 0  9991", "line2": "2 37470  98.6674 118.5972 0005359 185.6749 174.4411 14.99042865653068"}}, "geometry": {"type": "Point", "coordinates": [130.32106135105658, -36.11315572164942]}}, {"type": "Feature", "properties": {"norad_id": 37474, "name": "FENGYUN 1C DEB", "group": "fengyun-1c-debris", "lat": 64.64218372458143, "lon": 165.65928772787964, "alt_km": 631.4492666966044, "timestamp": "2025-12-07T03:52:32.786793+00:00", "meta": {"OBJECT_NAME": "FENGYUN 1C DEB", "OBJECT_ID": "1999-025EJU", "EPOCH": "2025-12-05T07:36:45.772416", "MEAN_MOTION": 14.74914088, "ECCENTRICITY": 0.01320517, "INCLINATION": 99.1659, "RA_OF_ASC_NODE": 183.4914, "ARG_OF_PERICENTER": 158.1771, "MEAN_ANOMALY": 202.5133, "EPHEMERIS_TYPE": 0, "CLASSIFICATION_TYPE": "U", "NORAD_CAT_ID": 37474, "ELEMENT_SET_NO": 999, "REV_AT_EPOCH": 62266, "BSTAR": 0.0022377651, "MEAN_MOTION_DOT": 0.00017273, "MEAN_MOTION_DDOT": 0}, "tle": {"line1": "1 37474U 99025EJU 25339.31719644  .00017273  00000+0  22378-2 0  9990", "line2": "2 37474  99.1659 183.4914 0132051 158.1771 202.5133 14.74914088622662"}}, "geometry": {"type": "Point", "coordinates": [165.65928772787964, 64.64218372458143]}}, {"type": "Feature", "properties": {"norad_id": 37477, "name": "FENGYUN 1C DEB", "group": "fengyun-1c-debris", "lat": -41.44669491990302, "lon": -6.329708670372998, "alt_km": 858.5260431956021, "timestamp": "2025-12-07T03:52:32.786804+00:00", "meta": {"OBJECT_NAME": "FENGYUN 1C DEB", "OBJECT_ID": "1999-025EJX", "EPOCH": "2025-12-05T11:28:45.537312", "MEAN_MOTION": 14.19689266, "ECCENTRICITY": 0.0036971, "INCLINATION": 98.6048, "RA_OF_ASC_NODE": 344.3504, "ARG_OF_PERICENTER": 127.046, "MEAN_ANOMALY": 233.4107, "EPHEMERIS_TYPE": 0, "CLASSIFICATION_TYPE": "U", "NORAD_CAT_ID": 37477, "ELEMENT_SET_NO": 999, "REV_AT_EPOCH": 81811, "BSTAR": 0.001143971, "MEAN_MOTION_DOT": 2.393e-05, "MEAN_MOTION_DDOT": 0}, "tle": {"line1": "1 37477U 99025EJX 25339.47830483  .00002393  00000+0  11440-2 0  9990", "line2": "2 37477  98.6048 344.3504 0036971 127.0460 233.4107 14.19689266818115"}}, "geometry": {"type": "Point", "coordinates": [-6.329708670372998, -41.44669491990302]}}, {"type": "Feature", "properties": {"norad_id": 37478, "name": "FENGYUN 1C DEB", "group": "fengyun-1c-debris", "lat": -69.16052044446113, "lon": 117.66077621073511, "alt_km": 1167.0234646930267, "timestamp": "2025-12-07T03:52:32.786814+00:00", "meta": {"OBJECT_NAME": "FENGYUN 1C DEB", "OBJECT_ID": "1999-025EJY", "EPOCH": "2025-12-05T17:22:19.375968", "MEAN_MOTION": 13.02904965, "ECCENTRICITY": 0.05487468, "INCLINATION": 99.6454, "RA_OF_ASC_NODE": 322.9064, "ARG_OF_PERICENTER": 335.2664, "MEAN_ANOMALY": 22.3015, "EPHEMERIS_TYPE": 0, "CLASSIFICATION_TYPE": "U", "NORAD_CAT_ID": 37478, "ELEMENT_SET_NO": 999, "REV_AT_EPOCH": 56470, "BSTAR": 0.0085592923, "MEAN_MOTION_DOT": 5.462e-05, "MEAN_MOTION_DDOT": 0}, "tle": {"line1": "1 37478U 99025EJY 25339.72383537  .00005462  00000+0  85593-2 0  9992", "line2": "2 37478  99.6454 322.9064 0548746 335.2664  22.3015 13.02904965564701"}}, "geometry": {"type": "Point", "coordinates": [117.66077621073511, -69.16052044446113]}}, {"type": "Feature", "properties": {"norad_id": 37589, "name": "FENGYUN 1C DEB", "group": "fengyun-1c-debris", "lat": -54.8583067147941, "lon": 50.607321574249916, "alt_km": 809.6096186917102, "timestamp": "2025-12-07T03:52:32.786825+00:00", "meta": {"OBJECT_NAME": "FENGYUN 1C DEB", "OBJECT_ID": "1999-025EKH", "EPOCH": "2025-12-02T23:49:55.171488", "MEAN_MOTION": 14.07988933, "ECCENTRICITY": 0.01206156, "INCLINATION": 99.0733, "RA_OF_ASC_NODE": 239.5393, "ARG_OF_PERICENTER": 291.4169, "MEAN_ANOMALY": 67.4168, "EPHEMERIS_TYPE": 0, "CLASSIFICATION_TYPE": "U", "NORAD_CAT_ID": 37589, "ELEMENT_SET_NO": 999, "REV_AT_EPOCH": 82447, "BSTAR": 0.0045555953, "MEAN_MOTION_DOT": 8.24e-05, "MEAN_MOTION_DDOT": 0}, "tle": {"line1": "1 37589U 99025EKH 25336.99299967  .00008240  00000+0  45556-2 0  9996", "line2": "2 37589  99.0733 239.5393 0120615 291.4169  67.4168 14.07988933824475"}}, "geometry": {"type": "Point", "coordinates": [50.607321574249916, -54.8583067147941]}}, {"type": "Feature", "properties": {"norad_id": 37594, "name": "FENGYUN 1C DEB", "group": "fengyun-1c-debris", "lat": 16.08067397405277, "lon": 8.108345111364665, "alt_km": 856.1274010988272, "timestamp": "2025-12-07T03:52:32.786835+00:00", "meta": {"OBJECT_NAME": "FENGYUN 1C DEB", "OBJECT_ID": "1999-025EKN", "EPOCH": "2025-12-01T20:10:06.711744", "MEAN_MOTION": 14.11100402, "ECCENTRICITY": 0.00849769, "INCLINATION": 98.7356, "RA_OF_ASC_NODE": 5.4727, "ARG_OF_PERICENTER": 301.0362, "MEAN_ANOMALY": 58.2487, "EPHEMERIS_TYPE": 0, "CLASSIFICATION_TYPE": "U", "NORAD_CAT_ID": 37594, "ELEMENT_SET_NO": 999, "REV_AT_EPOCH": 77608, "BSTAR": 0.00031068206, "MEAN_MOTION_DOT": 5.35e-06, "MEAN_MOTION_DDOT": 0}, "tle": {"line1": "1 37594U 99025EKN 25335.84035546  .00000535  00000+0  31068-3 0  9999", "line2": "2 37594  98.7356   5.4727 0084976 301.0362  58.2487 14.11100402776088"}}, "geometry": {"type": "Point", "coordinates": [8.108345111364665, 16.08067397405277]}}, {"type": "Feature", "properties": {"norad_id": 37600, "name": "FENGYUN 1C DEB", "group": "fengyun-1c-debris", "lat": 48.589234090291924, "lon": 127.86201553977253, "alt_km": 697.1626818840032, "timestamp": "2025-12-07T03:52:32.786846+00:00", "meta": {"OBJECT_NAME": "FENGYUN 1C DEB", "OBJECT_ID": "1999-025EKU", "EPOCH": "2025-12-05T16:54:41.229504", "MEAN_MOTION": 13.82454545, "ECCENTRICITY": 0.03574715, "INCLINATION": 98.9362, "RA_OF_ASC_NODE": 136.7535, "ARG_OF_PERICENTER": 68.678, "MEAN_ANOMALY": 295.2139, "EPHEMERIS_TYPE": 0, "CLASSIFICATION_TYPE": "U", "NORAD_CAT_ID": 37600, "ELEMENT_SET_NO": 999, "REV_AT_EPOCH": 88390, "BSTAR": 0.0047689903, "MEAN_MOTION_DOT": 8.396e-05, "MEAN_MOTION_DDOT": 0}, "tle": {"line1": "1 37600U 99025EKU 25339.70464386  .00008396  00000+0  47690-2 0  9994", "line2": "2 37600  98.9362 136.7535 0357471  68.6780 295.2139 13.82454545883907"}}, "geometry": {"type": "Point", "coordinates": [127.86201553977253, 48.589234090291924]}}]}